ONEWEB-0674             
1 55833U 23029AP  24326.16589471 -.00000091  00000+0 -27973-3 0  9990
2 55833  87.9026  43.6778 0002354  96.2634 263.8764 13.14500456 84138
ONEWEB-0675             
1 55834U 23029AQ  24325.27412464  .00000119  00000+0  26529-3 0  9994
2 55834  87.9196  59.1082 0001378 107.1239 253.0044 13.19727536 83939
ONEWEB-0720             
1 55835U 23029AR  24326.25183079  .00000092  00000+0  19738-3 0  9995
2 55835  87.9195  58.9124 0001826  86.4581 273.6761 13.19723493 83965
ONEWEB-0537             
1 56046U 23043A   24327.08947111  .00000028  00000+0  40874-4 0  9998
2 56046  87.9083 342.7377 0001561  98.0291 262.1017 13.16596459 84597
ONEWEB-0538             
1 56047U 23043B   24327.08313842 -.00000016  00000+0 -76033-4 0  9992
2 56047  87.9087 342.7606 0001569  86.6380 273.4930 13.16597171 84600
ONEWEB-0546             
1 56048U 23043C   24327.14647289 -.00000091  00000+0 -27285-3 0  9992
2 56048  87.9087 342.7141 0001671 117.5405 242.5896 13.16593552 84608
ONEWEB-0547             
1 56049U 23043D   24327.13598229  .00000045  00000+0  78443-4 0  9991
2 56049  87.9309 357.9402 0001633  87.7719 272.3602 13.21827438 83567
ONEWEB-0548             
1 56050U 23043E   24327.01981278 -.00000127  00000+0 -36484-3 0  9991
2 56050  87.9088 342.7808 0002382  91.9454 268.1949 13.16594899 84586
